COSMOS 2433 (720)       
1 32275U 07052A   23201.98361877 -.00000066  00000+0  00000+0 0  9991
2 32275  66.0342 351.4405 0002149 194.8510 165.1438  2.13104269122469
COSMOS 2432 (719)       
1 32276U 07052B   23202.63212130 -.00000063  00000+0  00000+0 0  9999
2 32276  66.0483 351.5270 0007942 334.3364 110.3730  2.13103442122471
COSMOS 2434 (721)       
1 32393U 07065A   23201.85218023  .00000059  00000+0  00000+0 0  9997
2 32393  64.3383 227.8528 0000377 177.9798 332.1925  2.13103217121164
COSMOS 2436 (723)       
1 32395U 07065C   23202.62685604  .00000062  00000+0  00000+0 0  9992
2 32395  64.3470 227.8877 0015339 351.5132 168.5309  2.13103008121116
COSMOS 2456 (730)       
1 36111U 09070A   23201.15358632 -.00000003  00000+0  00000+0 0  9991
2 36111  64.4733 107.3932 0003931 318.6205 175.4652  2.13099355105819
COSMOS 2457 (733)       
1 36112U 09070B   23202.73132229  .00000001  00000+0  00000+0 0  9996
2 36112  64.4575 107.2054 0004147 159.7686 235.1242  2.13101494105856
COSMOS 2460 (732)       
1 36402U 10007C   23201.86447303 -.00000067  00000+0  00000+0 0  9998
2 36402  65.8977 350.1676 0002084 108.8793 328.8751  2.13106471104180
COSMOS 2476 (744)       
1 37867U 11064A   23202.03901094  .00000002  00000+0  00000+0 0  9998
2 37867  64.7545 108.8728 0021956 237.1136 125.1644  2.13101851 91188
COSMOS 2477 (745)       
1 37868U 11064B   23201.91202443  .00000002  00000+0  00000+0 0  9997
2 37868  64.7618 108.9461 0019202 238.1689 204.5903  2.13101775 91130
COSMOS 2475 (743)       
1 37869U 11064C   23201.62549462  .00000001  00000+0  00000+0 0  9990
2 37869  64.7689 108.9676 0023815 254.7233 286.6357  2.13102170 91135
COSMOS 2485 (747)       
1 39155U 13019A   23201.97798920  .00000002  00000+0  00000+0 0  9996
2 39155  64.9151 109.3888 0022344 233.0169 126.8218  2.13102048 79642
COSMOS 2492 (754)       
1 39620U 14012A   23201.46420159 -.00000070  00000+0  00000+0 0  9993
2 39620  65.7817 349.8060 0010870 326.9696  32.9618  2.13103308 72596
COSMOS 2500 (755)       
1 40001U 14032A   23202.58661497 -.00000064  00000+0  00000+0 0  9999
2 40001  65.7199 349.5994 0006835 185.7214 174.2732  2.13106122 70839
COSMOS 2501 (702K)      
1 40315U 14075A   23201.89761286  .00000058  00000+0  00000+0 0  9996
2 40315  63.6421 227.2451 0020214 211.4755 148.4636  2.13101517 67213
COSMOS 2514 (751)       
1 41330U 16008A   23201.87864753 -.00000068  00000+0  00000+0 0  9995
2 41330  65.5176 349.2159 0010222 200.2026 159.7577  2.13102832 57987
COSMOS 2516 (753)       
1 41554U 16032A   23199.17921764  .00000066  00000+0  00000+0 0  9992
2 41554  63.8683 227.7273 0015511 214.7238 145.2470  2.13106569 55539
COSMOS 2522 (752)       
1 42939U 17055A   23201.25151504  .00000057  00000+0  00000+0 0  9996
2 42939  64.1025 228.1674 0010157 242.2377 117.7238  2.13102055 45320
COSMOS 2527 (756)       
1 43508U 18053A   23202.14853113  .00000003  00000+0  00000+0 0  9993
2 43508  65.0768 109.4663 0007873 232.6987 127.2734  2.13102509 39646
COSMOS 2529 (757)       
1 43687U 18086A   23202.24800373  .00000060  00000+0  00000+0 0  9991
2 43687  64.3176 228.5566 0011733 260.9391  98.9897  2.13102213 36651
COSMOS 2534 (758)       
1 44299U 19030A   23201.75687052  .00000058  00000+0  00000+0 0  9990
2 44299  64.3903 228.4955 0013791 279.8172 197.6371  2.13102249 32291
COSMOS 2544 (759)       
1 44850U 19088A   23201.62295070  .00000001  00000+0  00000+0 0  9995
2 44850  65.0625 109.3277 0012680 258.8019 101.0978  2.13102293 28050
COSMOS 2545 (760)       
1 45358U 20018A   23202.75825925 -.00000065  00000+0  00000+0 0  9998
2 45358  64.8575 349.4677 0007954 235.1925 124.7359  2.13102754 26042
COSMOS 2547 (705K)      
1 46805U 20075A   23202.47837680  .00000061  00000+0  00000+0 0  9994
2 46805  64.6173 228.0136 0008794 243.4304 116.5396  2.13103147 21288
COSMOS 2557 (706K)      
1 52984U 22075A   23201.70195296 -.00000070  00000+0  00000+0 0  9997
2 52984  64.7726 351.6682 0010625 279.8209  80.0601  2.13102355  8054
COSMOS 2559 (707K)      
1 54031U 22130A   23202.58229185 -.00000066  00000+0  00000+0 0  9991
2 54031  64.7436 351.7668 0005908 210.5642 149.4047  2.13101570  6064
COSMOS 2564 (761)       
1 54377U 22161A   23201.36807770  .00000058  00000+0  00000+0 0  9995
2 54377  64.7580 228.0958 0011266 226.1599 133.8113  2.13102256  4985
